INTELSAT 9 (IS-9)       
1 26451U 00043A   25084.48189812 -.00000009  00000+0  00000+0 0  9993
2 26451   9.3997  53.2338 0003308 332.0148  37.6629  1.00272019 39643
INTELSAT 10 (IS-10)     
1 26766U 01019A   25084.55323024 -.00000005  00000+0  00000+0 0  9995
2 26766   7.9987  63.8188 0003803 304.5397  80.1542  1.00271941 41121
INTELSAT 901 (IS-901)   
1 26824U 01024A   25084.46330573 -.00000204  00000+0  00000+0 0  9994
2 26824   0.0786 102.8580 0002335 277.6139 301.9780  1.00271026 18485
INTELSAT 902 (IS-902)   
1 26900U 01039A   25084.45878795 -.00000281  00000+0  00000+0 0  9992
2 26900   4.9804  77.2449 0004455 283.5104 297.4576  1.00273123 86191
INTELSAT 904 (IS-904)   
1 27380U 02007A   25083.32019490 -.00000211  00000+0  00000+0 0  9998
2 27380   5.7889  74.5504 0003277 298.8316 254.4324  1.00271240 47259
DIRECTV 5 (TEMPO 1)     
1 27426U 02023A   25084.50815979 -.00000056  00000+0  00000+0 0  9991
2 27426   3.7258  80.9198 0003600 296.5014 238.6017  1.00271289 83625
INTELSAT 905 (IS-905)   
1 27438U 02027A   25084.45322760 -.00000172  00000+0  00000+0 0  9992
2 27438   5.6193  75.1725 0005910 286.2180 266.9815  0.99739294 46862
GALAXY 3C (G-3C)        
1 27445U 02030A   25084.50428295 -.00000152  00000+0  00000+0 0  9998
2 27445   2.5712  83.7523 0002703  49.4809 136.6614  1.00271398 41996
INTELSAT 906 (IS-906)   
1 27513U 02041A   25084.55288273  .00000015  00000+0  00000+0 0  9998
2 27513   4.6594  78.4412 0002594 278.8670  89.1053  1.00271347 82531
GALAXY 23 (G-23)        
1 27854U 03034A   25084.47655645  .00000012  00000+0  00000+0 0  9998
2 27854   2.0356  85.2883 0002984 291.0332 217.5198  1.00272288 79246
GALAXY 13 (HORIZONS-1)  
1 27954U 03044A   25084.45044619  .00000131  00000+0  00000+0 0  9993
2 27954   0.2565  91.6850 0002369 274.2291 189.3735  1.00272665 42071
INTELSAT 10-02          
1 28358U 04022A   25084.39141838 -.00000013  00000+0  00000+0 0  9993
2 28358   0.0248 179.2136 0000800 184.6843 319.1553  1.00269920 76057
XM-3 (RHYTHM)           
1 28626U 05008A   25084.45166376 -.00000201  00000+0  00000+0 0  9996
2 28626   0.0521 260.8868 0001494 181.6904 176.8251  1.00268782 38127
DIRECTV 8               
1 28659U 05019A   25084.50738515 -.00000001  00000+0  00000+0 0  9998
2 28659   0.0137 238.0553 0003195 136.8298 231.9272  1.00271566 72579
GALAXY 28 (G-28)        
1 28702U 05022A   25084.45105560 -.00000186  00000+0  00000+0 0  9997
2 28702   2.1403  84.5165 0004299 228.0590 303.9358  1.00271998 47481
GALAXY 16 (G-16)        
1 29236U 06023A   25084.47942530 -.00000128  00000+0  00000+0 0  9996
2 29236   0.0319 230.2914 0002637 140.3611 246.0961  1.00271408 68478
DIRECTV 9S              
1 29494U 06043A   25084.44870983 -.00000114  00000+0  00000+0 0  9998
2 29494   1.2581  86.3861 0003019 282.6796 234.4116  1.00271402 46886
GALAXY 17 (G-17)        
1 31307U 07016B   25084.09475931 -.00000206  00000+0  00000+0 0  9992
2 31307   1.8306  85.6519 0003617 215.2639 190.9922  1.00271967 65302
DIRECTV 10              
1 31862U 07032A   25084.51073164 -.00000105  00000+0  00000+0 0  9993
2 31862   0.0417 353.8054 0000096  13.6922 256.7804  1.00270890 41093
INTELSAT 11 (IS-11)     
1 32253U 07044B   25077.38980492 -.00000266  00000+0  00000+0 0  9997
2 32253   2.3743  84.3185 0004940 358.1056 190.9695  1.00194353 63925
HORIZONS-2              
1 32388U 07063B   25084.45409641 -.00000254  00000+0  00000+0 0  9992
2 32388   1.4397  86.2176 0002227 296.8987 249.7197  1.00272910 63316
DIRECTV 11              
1 32729U 08013A   25084.47942557 -.00000127  00000+0  00000+0 0  9996
2 32729   0.0099 351.0140 0000058 174.4617  91.0970  1.00270597 41091
GALAXY 18 (G-18)        
1 32951U 08024A   25083.99211505  .00000024  00000+0  00000+0 0  9998
2 32951   0.0030  94.0365 0003011 285.8807  36.9273  1.00272066 41341
INTELSAT 25 (IS-25)     
1 33153U 08034A   25084.46252381 -.00000225  00000+0  00000+0 0  9998
2 33153   1.5464  85.8854 0003126 288.2166 304.0707  1.00272006 61196
GALAXY 19 (G-19)        
1 33376U 08045A   25083.59247780 -.00000139  00000+0  00000+0 0  9991
2 33376   0.0268 253.9591 0002862 122.3799 282.2490  1.00271118 60391
FM-5                    
1 35493U 09034A   25084.45166376 -.00000202  00000+0  00000+0 0  9990
2 35493   0.0330 265.4059 0002879 284.6311  69.5586  1.00270000 42144
INTELSAT 14 (IS-14)     
1 36097U 09064A   25084.45983052 -.00000275  00000+0  00000+0 0  9992
2 36097   0.0229 270.5332 0002778 114.1672 278.9967  1.00269653 56100
INTELSAT 15 (IS-15)     
1 36106U 09067A   25084.48563398 -.00000187  00000+0  00000+0 0  9998
2 36106   0.0242 167.6955 0002283 207.1673  68.3025  1.00268288 36723
DIRECTV 12              
1 36131U 09075A   25084.49894767 -.00000105  00000+0  00000+0 0  9993
2 36131   0.0319  28.6377 0000918  19.3502 212.1156  1.00270795 42050
INTELSAT 16 (IS-16)     
1 36397U 10006A   25084.45366201 -.00000246  00000+0  00000+0 0  9992
2 36397   0.0198 191.7607 0001887 192.9827 245.5310  1.00267331 55150
XM-5                    
1 37185U 10053A   25083.98656014 -.00000024  00000+0  00000+0 0  9995
2 37185   0.0340 268.9709 0001804 276.0133 237.6729  1.00270210 52971
INTELSAT 17 (IS-17)     
1 37238U 10065B   25084.55331713 -.00000004  00000+0  00000+0 0  9995
2 37238   0.0232 220.4439 0002585 155.6183  72.3661  1.00271692 48741
INTELSAT 28 (IS-28)     
1 37392U 11016A   25084.08809883 -.00000176  00000+0  00000+0 0  9999
2 37392   0.6411  88.5773 0004025 277.4589 188.3215  1.00145526 48788
INTELSAT 18 (IS-18)     
1 37834U 11056A   25084.43307135  .00000050  00000+0  00000+0 0  9996
2 37834   0.0250 172.1967 0001849 201.1495 145.6926  1.00268281 49319
INTELSAT 22 (IS-22)     
1 38098U 12011A   25084.48311446 -.00000061  00000+0  00000+0 0  9999
2 38098   0.0088 103.0057 0001792 278.2923  47.8973  1.00270777  2689
INTELSAT 19 (IS-19)     
1 38356U 12030A   25084.43029119 -.00000059  00000+0  00000+0 0  9992
2 38356   0.0233 185.0238 0002993 188.3806 130.6376  1.00269873 45943
INTELSAT 20 (IS-20)     
1 38740U 12043A   25084.55375153 -.00000027  00000+0  00000+0 0  9993
2 38740   0.0125 163.3241 0002632  23.6890 264.0707  1.00271497 46246
INTELSAT 21 (IS-21)     
1 38749U 12045A   25084.45722411 -.00000286  00000+0  00000+0 0  9993
2 38749   0.0254 165.1344 0001839 218.5185 266.1166  1.00267642 46027
INTELSAT 23 (IS-23)     
1 38867U 12057A   25084.45826667 -.00000286  00000+0  00000+0 0  9995
2 38867   0.0181 191.1530 0000549 113.3193 350.6579  1.00268365 45457
FM-6                    
1 39360U 13058A   25084.51048534 -.00000019  00000+0  00000+0 0  9996
2 39360   0.0179 236.6492 0000587 234.3171 139.8335  1.00271749 41562
INTELSAT 30 (IS-30)     
1 40271U 14062A   25082.02170237 -.00000148  00000+0  00000+0 0  9998
2 40271   0.0168 124.8545 0001272 313.4147  15.2458  1.00271619  2256
DIRECTV 14              
1 40333U 14078B   25084.47942589 -.00000127  00000+0  00000+0 0  9999
2 40333   0.0300 297.5176 0000571 224.2159  94.8011  1.00269244 37554
DIRECTV 15              
1 40663U 15026A   25084.09128410 -.00000103  00000+0  00000+0 0  9990
2 40663   0.0285 101.1996 0000133 102.7770 268.8153  1.00269618 35963
SKY MEXICO-1            
1 40664U 15026B   25084.09606251 -.00000236  00000+0  00000+0 0  9992
2 40664   0.0404 352.0726 0002536  38.7263 107.8206  1.00270125 35954
INTELSAT 34 (IS-34)     
1 40874U 15039A   25083.96364240 -.00000286  00000+0  00000+0 0  9998
2 40874   0.0129 235.3741 0000490  10.0614 228.6493  1.00270715 35125
INTELSAT 31 (IS-31)     
1 41581U 16035A   25083.51125899 -.00000151  00000+0  00000+0 0  9998
2 41581   0.0096 195.4174 0002144  21.2288  54.5647  1.00271693 32174
INTELSAT 36 (IS-36)     
1 41747U 16053A   25084.55375153 -.00000026  00000+0  00000+0 0  9998
2 41747   0.0145 171.3828 0000858 151.5982 128.1217  1.00268647 31445
INTELSAT 32E (IS-32E)   
1 41945U 17007B   25084.09311578 -.00000270  00000+0  00000+0 0  9999
2 41945   0.0143 139.1570 0000599 239.3257 154.6471  1.00269216 29728
INTELSAT 35E (IS-35E)   
1 42818U 17041A   25084.06086278 -.00000239  00000+0  00000+0 0  9995
2 42818   0.0176 191.8871 0001974 173.9585 164.3386  1.00273273 28313
INTELSAT 37E (IS-37E)   
1 42950U 17059A   25084.08809883 -.00000142  00000+0  00000+0 0  9991
2 42950   0.0248 173.3447 0002069 205.9433 177.2174  1.00268522 27563
AZERSPACE 2 (IS-38)     
1 43632U 18074A   25084.12064965  .00000135  00000+0  00000+0 0  9997
2 43632   0.0242 185.9940 0001359 188.0028 257.3722  1.00269894 23944
HORIZONS-3E             
1 43633U 18074B   25084.13447767 -.00000032  00000+0  00000+0 0  9991
2 43633   0.0213 290.9004 0000685  34.8219  74.5122  1.00271566 23832
AT&T T-16               
1 44333U 19034A   25084.30587852 -.00000116  00000+0  00000+0 0  9998
2 44333   0.0213 108.1997 0001112  49.5160  34.5399  1.00269095 21132
INTELSAT 39 (IS-39)     
1 44476U 19049B   25084.55244832  .00000032  00000+0  00000+0 0  9993
2 44476   0.0251 187.5478 0000852 317.7946 298.7359  1.00268660 20629
GALAXY 30 (G-30)        
1 46114U 20056C   25083.58691745  .00000036  00000+0  00000+0 0  9999
2 46114   0.0036  84.9956 0002016 283.6743 259.9151  1.00271898 16780
GALAXY 33 (G-33)        
1 54026U 22128A   25084.49484895  .00000077  00000+0  00000+0 0  9994
2 54026   0.0050  84.9890 0001798 283.7552 219.5939  1.00271884  9243
GALAXY 34 (G-34)        
1 54027U 22128B   25084.64276050  .00000057  00000+0  00000+0 0  9992
2 54027   0.0113 211.1144 0001472 150.1455 284.4524  1.00272732  9411
GALAXY 31 (G-31)        
1 54243U 22153A   25084.23046639  .00000012  00000+0  00000+0 0  9994
2 54243   0.0097 184.5486 0001279 186.2149 134.1346  1.00271775  2635
GALAXY 32 (G-32)        
1 54244U 22153B   25084.30787677 -.00000175  00000+0  00000+0 0  9998
2 54244   0.0176 175.4751 0002898 190.6402 196.7326  1.00268009  8642
GALAXY 35 (G-35)        
1 54741U 22170A   25084.43471899 -.00000164  00000+0  00000+0 0  9997
2 54741   0.0125 179.1737 0001970 189.5797 237.7693  1.00271378  8395
GALAXY 36 (G-36)        
1 54742U 22170B   25084.09397738 -.00000186  00000+0  00000+0 0  9993
2 54742   0.0169 223.7931 0002395 191.1230  72.7149  1.00270064  8270
GALAXY 37 (G-37)        
1 57493U 23112A   25084.50110260  .00000046  00000+0  00000+0 0  9999
2 57493   0.0162 265.3796 0001959 105.2019 226.0175  1.00272298  6043
